[{"OBJECT_NAME":"STARLINK-34747","OBJECT_ID":"2025-158R","EPOCH":"2026-03-09T14:38:35.287296","MEAN_MOTION":15.05662435,"ECCENTRICITY":0.0002311,"INCLINATION":97.6019,"RA_OF_ASC_NODE":294.0063,"ARG_OF_PERICENTER":82.9741,"MEAN_ANOMALY":277.1748,"EPHEMERIS_TYPE":0,"CLASSIFICATION_TYPE":"U","NORAD_CAT_ID":64947,"ELEMENT_SET_NO":999,"REV_AT_EPOCH":3534,"BSTAR":0.00038152,"MEAN_MOTION_DOT":5.45e-5,"MEAN_MOTION_DDOT":0},{"OBJECT_NAME":"PEGASUS DEB","OBJECT_ID":"1994-029EN","EPOCH":"2026-03-09T15:28:18.113376","MEAN_MOTION":15.06103636,"ECCENTRICITY":0.0063203,"INCLINATION":81.992,"RA_OF_ASC_NODE":119.5258,"ARG_OF_PERICENTER":162.6478,"MEAN_ANOMALY":325.8514,"EPHEMERIS_TYPE":0,"CLASSIFICATION_TYPE":"U","NORAD_CAT_ID":24091,"ELEMENT_SET_NO":999,"REV_AT_EPOCH":61530,"BSTAR":0.00036871,"MEAN_MOTION_DOT":5.666e-5,"MEAN_MOTION_DDOT":0}]
